1 25981U 99065B   15191.57826116  .00000342  00000-0  17843-3 0  9992,2 25981 045.0239 236.0182 0004354 297.6746 224.8689 14.31946754814229
1 25981U 99065B   15193.15972043  .00000513  00000-0  24149-3 0  9996,2 25981 045.0237 228.5963 0004324 304.0464 098.7964 14.31949300814456
1 25981U 99065B   15194.50666315  .00000406  00000-0  20207-3 0  9990,2 25981 045.0235 222.2751 0004269 309.6957 203.3514 14.31950053814649
1 25981U 99065B   15195.54979539  .00000420  00000-0  20706-3 0  9990,2 25981 045.0235 217.3797 0004226 314.1233 181.4786 14.31951389814791
1 25981U 99065B   15197.06508223  .00000307  00000-0  16529-3 0  9999,2 25981 045.0235 210.2683 0004170 320.7554 073.7218 14.31952623815015
1 25981U 99065B   15198.12655456  .00000235  00000-0  13876-3 0  9990,2 25981 045.0235 205.2869 0004117 325.5345 146.1415 14.31953531815166
1 25981U 99065B   15199.16018192  .00000224  00000-0  13474-3 0  9997,2 25981 045.0235 200.4361 0004073 330.3088 074.8895 14.31954632815318
1 25981U 99065B   15200.43793050  .00000220  00000-0  13334-3 0  9994,2 25981 045.0235 194.4396 0003989 336.1441 182.2468 14.31955789815493
1 25981U 99065B   15202.08941751  .00000183  00000-0  11966-3 0  9997,2 25981 045.0235 186.6890 0003884 343.9580 056.1245 14.31956809815732
1 25981U 99065B   15203.13748120  .00000226  00000-0  13534-3 0  9990,2 25981 045.0236 181.7703 0003813 349.0152 059.0917 14.31957766815883
1 25981U 99065B   15204.34303186  .00000245  00000-0  14242-3 0  9991,2 25981 045.0236 176.1126 0003744 355.5795 153.1897 14.31958690816058
1 25981U 99065B   15205.38665258  .00000248  00000-0  14364-3 0  9995,2 25981 045.0237 171.2149 0003671 000.9889 132.8860 14.31959589816203
1 25981U 99065B   15207.11784576  .00000149  00000-0  10708-3 0  9991,2 25981 045.0240 163.0903 0003542 010.2438 056.6306 14.31960496816459
1 25981U 99065B   15208.32209211  .00000165  00000-0  11274-3 0  9990,2 25981 045.0242 157.4388 0003466 017.1710 143.6489 14.31961524816620
1 25981U 99065B   15209.83071186  .00000239  00000-0  14034-3 0  9994,2 25981 045.0243 150.3587 0003362 025.7519 359.5951 14.31963051816844
1 25981U 99065B   15211.17747797  .00000278  00000-0  15462-3 0  9991,2 25981 045.0244 144.0384 0003293 034.1137 100.5953 14.31964196817032
1 25981U 99065B   15212.21493953  .00000364  00000-0  18639-3 0  9994,2 25981 045.0244 139.1695 0003246 040.6244 047.4275 14.31965390817180
1 25981U 99065B   15213.27068230  .00000416  00000-0  20571-3 0  9993,2 25981 045.0244 134.2148 0003207 047.2729 088.4581 14.31966551817339
1 25981U 99065B   15214.78594367  .00000405  00000-0  20176-3 0  9994,2 25981 045.0245 127.1035 0003158 056.8834 337.6706 14.31967981817554
1 25981U 99065B   15215.83533706  .00000388  00000-0  19548-3 0  9992,2 25981 045.0247 122.1787 0003134 063.7954 345.6846 14.31968993817704
1 25981U 99065B   15217.17619622  .00000374  00000-0  19030-3 0  9994,2 25981 045.0249 115.8862 0003119 072.4420 055.9478 14.31970287817898
1 25981U 99065B   15218.28446850  .00000367  00000-0  18763-3 0  9992,2 25981 045.0250 110.6850 0003120 079.9112 007.2326 14.31971375818052
1 25981U 99065B   15220.11151183  .00000440  00000-0  21464-3 0  9993,2 25981 045.0250 102.1106 0003143 092.2516 062.5610 14.31973618818314
1 25981U 99065B   15221.49053179  .00000498  00000-0  23590-3 0  9996,2 25981 045.0249 095.6386 0003189 101.6025 329.0565 14.31975371818518
1 25981U 99065B   15222.73809994  .00000385  00000-0  19412-3 0  9991,2 25981 045.0248 089.7835 0003251 110.0524 278.1557 14.31976003818695
1 25981U 99065B   15223.78796340  .00000314  00000-0  16779-3 0  9992,2 25981 045.0248 084.8563 0003312 116.9039 288.6871 14.31976765818840
1 25981U 99065B   15224.83861196  .00000251  00000-0  14473-3 0  9990,2 25981 045.0249 079.9254 0003391 123.7691 303.2586 14.31977487818995
1 25981U 99065B   15225.96210716  .00000202  00000-0  12665-3 0  9998,2 25981 045.0250 074.6527 0003450 130.4302 333.9327 14.31978283819159
1 25981U 99065B   15227.01691998  .00000189  00000-0  12177-3 0  9993,2 25981 045.0251 069.7023 0003538 136.9137 010.3798 14.31979059819307
1 25981U 99065B   15228.06249685  .00000321  00000-0  17051-3 0  9995,2 25981 045.0251 064.7953 0003623 143.2153 359.3545 14.31980586819457
1 25981U 99065B   15229.50413627  .00000331  00000-0  17427-3 0  9992,2 25981 045.0252 058.0294 0003747 151.5728 229.9994 14.31981763819660
1 25981U 99065B   15230.85114611  .00000257  00000-0  14689-3 0  9997,2 25981 045.0253 051.7076 0003903 159.2556 333.0249 14.31982388819852
1 25981U 99065B   15231.96773891  .00000207  00000-0  12846-3 0  9999,2 25981 045.0254 046.4673 0004029 165.3986 328.6190 14.31983050820014
1 25981U 99065B   15233.55582921  .00000130  00000-0  10007-3 0  9990,2 25981 045.0255 039.0139 0004193 173.9363 234.8015 14.31983973820249
1 25981U 99065B   15235.87935530  .00000174  00000-0  11634-3 0  9990,2 25981 045.0259 028.1092 0004396 185.6370 332.7588 14.31985797820578
1 25981U 99065B   15236.92279113  .00000204  00000-0  12725-3 0  9991,2 25981 045.0261 023.2123 0004495 190.8578 311.7896 14.31986591820729
1 25981U 99065B   15238.50688414  .00000235  00000-0  13851-3 0  9990,2 25981 045.0262 015.7780 0004653 198.6393 198.1198 14.31987752820959
1 25981U 99065B   15241.50866728  .00000342  00000-0  17838-3 0  9998,2 25981 045.0262 001.6903 0004952 212.9386 193.4169 14.31991338821383
1 25981U 99065B   15241.80509400 +.00000323 +00000-0 +17135-3 0  9991,2 25981 045.0262 000.2992 0004957 214.2180 281.7399 14.31991544820540
1 25981U 99065B   15242.78565111  .00000270  00000-0  15144-3 0  9999,2 25981 045.0261 355.6972 0005042 218.7194 297.0502 14.31992325821561
1 25981U 99065B   15243.76348310 +.00000275 +00000-0 +15328-3 0  9997,2 25981 045.0261 351.1080 0005125 223.2240 298.2983 14.31993370820822
1 25981U 99065B   15244.16419664  .00000287  00000-0  15770-3 0  9997,2 25981  45.0262 349.2274 0005157 225.1405 204.1216 14.31993823821767
1 25981U 99065B   15245.48784422  .00000273  00000-0  15279-3 0  9999,2 25981  45.0262 343.0152 0005265 231.1151 188.3645 14.31995000821958
1 25981U 99065B   15245.56172845 +.00000281 +00000-0 +15569-3 0  9999,2 25981 045.0262 342.6685 0005267 231.4511 209.2822 14.31995110821085
1 25981U 99065B   15246.46439799 +.00000283 +00000-0 +15647-3 0  9992,2 25981 045.0262 338.4321 0005330 235.5065 183.1382 14.31995867821210
1 25981U 99065B   15247.22411544  .00000314  00000-0  16772-3 0  9990,2 25981  45.0261 334.8667 0005379 238.9226 139.9819 14.31996671822209
1 25981U 99065B   15248.57195869  .00000329  00000-0  17346-3 0  9992,2 25981  45.0259 328.5410 0005446 244.5994 249.3901 14.31997960822392
1 25981U 99065B   15248.71183550 +.00000326 +00000-0 +17220-3 0  9990,2 25981 045.0259 327.8846 0005455 245.3443 250.4319 14.31998075821534
1 25981U 99065B   15249.68821380  .00000305  00000-0  16432-3 0  9998,2 25981  45.0258 323.3023 0005502 249.6581 244.3891 14.31998912822554
1 25981U 99065B   15251.20333192  .00000285  00000-0  15710-3 0  9993,2 25981  45.0255 316.1915 0005574 256.2382 136.0727 14.32000380822776
1 25981U 99065B   15252.46833338  .00000321  00000-0  17022-3 0  9998,2 25981  45.0254 310.2545 0005616 261.6991 178.2382 14.32001913822950
1 25981U 99065B   15252.61728022 +.00000310 +00000-0 +16643-3 0  9994,2 25981 045.0254 309.5555 0005620 262.3849 226.1442 14.32002007822097
1 25981U 99065B   15253.59368612  .00000335  00000-0  17565-3 0  9998,2 25981  45.0253 304.9729 0005645 266.5878 220.3690 14.32003106823119
1 25981U 99065B   15255.18201874  .00000347  00000-0  18000-3 0  9999,2 25981  45.0251 297.5182 0005681 273.3854 129.6573 14.32004686823347
1 25981U 99065B   15256.52915289  .00000300  00000-0  16274-3 0  9990,2 25981  45.0250 291.1957 0005692 279.2786 235.2275 14.32005649823531
1 25981U 99065B   15258.12332184  .00000295  00000-0  16073-3 0  9995,2 25981  45.0248 283.7135 0005689 286.0989 174.6265 14.32007221823768
1 25981U 99065B   15259.45931635  .00000242  00000-0  14126-3 0  9997,2 25981  45.0246 277.4433 0005682 292.1298 222.5896 14.32008211823955
1 25981U 99065B   15259.52541172 +.00000241 +00000-0 +14088-3 0  9994,2 25981 045.0246 277.1330 0005681 292.4363 203.3484 14.32008267823088
1 25981U 99065B   15260.50668021  .00000240  00000-0  14044-3 0  9998,2 25981  45.0245 272.5276 0005667 296.8825 222.4438 14.32009152824109
1 25981U 99065B   15262.15859190  .00000273  00000-0  15264-3 0  9991,2 25981  45.0244 264.7742 0005630 304.2519  99.2755 14.32010704824346
1 25981U 99065B   15263.43618561  .00000357  00000-0  18378-3 0  9990,2 25981  45.0243 258.7779 0005583 310.0714 206.1054 14.32012118824529
1 25981U 99065B   15264.48016847  .00000375  00000-0  19031-3 0  9992,2 25981  45.0243 253.8778 0005537 314.8038 188.5473 14.32013104824674
1 25981U 99065B   15266.13730912  .00000358  00000-0  18416-3 0  9999,2 25981  45.0243 246.0999 0005457 322.5534  92.0046 14.32014540824918
1 25981U 99065B   15267.40845144  .00000366  00000-0  18702-3 0  9991,2 25981  45.0243 240.1339 0005386 328.6863 165.2509 14.32015949825095
1 25981U 99065B   15267.94728749 +.00000356 +00000-0 +18315-3 0  9990,2 25981 045.0243 237.6048 0005354 331.2774 063.1769 14.32016521824291
1 25981U 99065B   15269.14853442  .00000389  00000-0  19547-3 0  9997,2 25981  45.0244 231.9668 0005276 337.1702 135.9969 14.32018154825347
1 25981U 99065B   15270.34387933  .00000367  00000-0  18735-3 0  9992,2 25981  45.0243 226.3564 0005195 343.0017 178.4263 14.32019344825514
1 25981U 99065B   15270.94953796 +.00000405 +00000-0 +20131-3 0  9990,2 25981 045.0243 223.5136 0005152 345.9180 060.8540 14.32020225824727
1 25981U 99065B   15271.85255478  .00000394  00000-0  19731-3 0  9994,2 25981  45.0243 219.2753 0005089 350.3429  36.2139 14.32021056825735
1 25981U 99065B   15271.92595466 +.00000444 +00000-0 +21574-3 0  9990,2 25981 045.0243 218.9308 0005083 350.7129 054.6056 14.32021424824866
1 25981U 99065B   15272.90219130  .00000453  00000-0  21920-3 0  9995,2 25981  45.0243 214.3488 0005017 355.7803  47.1597 14.32022464825881
